BEIDOU-2 G8             
1 44231U 19027A   26156.30666601 -.00000234  00000+0  00000+0 0  9999
2 44231   1.6280  74.4904 0010717 284.3614 149.7739  1.00275677 25962
COSMOS 2534 [GLONASS-M] 
1 44299U 19030A   26154.62913067  .00000066  00000+0  00000+0 0  9993
2 44299  64.3676 193.0731 0013144 275.2936 262.5197  2.13102470 54633
BEIDOU-3 IGSO-2         
1 44337U 19035A   26155.89438184 -.00000070  00000+0  00000+0 0  9999
2 44337  55.2445 158.9697 0039725 216.0101 320.2492  1.00270541 25548
NAVSTAR 78 (USA 293)    
1 44506U 19056A   26153.44735856 -.00000081  00000+0  00000+0 0  9997
2 44506  55.6403 331.7284 0061230 197.3681 346.8768  2.00569922 49773
BEIDOU-3 M24            
1 44542U 19061A   26155.35556796  .00000070  00000+0  00000+0 0  9996
2 44542  54.3958 183.1608 0008292 359.5616   0.4973  1.86229272 45559
BEIDOU-3 M23            
1 44543U 19061B   26156.16027098  .00000075  00000+0  00000+0 0  9990
2 44543  54.3945 183.1018 0005525 339.5866 111.6566  1.86227560 45575
EUTELSAT 5 WEST B       
1 44624U 19067A   26156.27704690 -.00000030  00000+0  00000+0 0  9990
2 44624   0.0652 339.9160 0003340  94.9654 273.5752  1.00272107 24314
BEIDOU-3 IGSO-3         
1 44709U 19073A   26136.81046384 -.00000217  00000+0  00000+0 0  9995
2 44709  54.8566 281.2355 0042953 189.4588 170.3676  1.00246251 24144
BEIDOU-3 M22            
1 44793U 19078A   26155.73214284 -.00000057  00000+0  00000+0 0  9993
2 44793  53.9480 300.2656 0006778  50.1879 309.8592  1.86227616 44416
BEIDOU-3 M21            
1 44794U 19078B   26155.33513565 -.00000059  00000+0  00000+0 0  9996
2 44794  53.9214 300.2407 0004642  48.3800 311.6458  1.86228007 44414
COSMOS 2544 [GLONASS-M] 
1 44850U 19088A   26155.82857516 -.00000007  00000+0  00000+0 0  9994
2 44850  65.5595  74.1426 0013690 260.0926  99.7727  2.13102158 50454
BEIDOU-3 M19            
1 44864U 19090A   26153.18027023 -.00000055  00000+0  00000+0 0  9994
2 44864  56.5459  63.2868 0018350 297.3172 255.2065  1.86231755 43957
BEIDOU-3 M20            
1 44865U 19090B   26156.20352235 -.00000039  00000+0  00000+0 0  9999
2 44865  56.5503  63.2213 0016164 310.9083 198.1462  1.86231708 43994
BEIDOU-3 G2             
1 45344U 20017A   26155.79480067 -.00000129  00000+0  00000+0 0  9991
2 45344   2.8392  47.1642 0002888  25.2494 186.9685  1.00270930 23136
COSMOS 2545 [GLONASS-M] 
1 45358U 20018A   26154.14658972 -.00000045  00000+0  00000+0 0  9994
2 45358  64.3637 312.9119 0007797 231.7288 128.1886  2.13102718 48363
BEIDOU-3 G3             
1 45807U 20040A   26156.08609619 -.00000342  00000+0  00000+0 0  9997
2 45807   2.4176  67.4216 0003069 336.0146 351.6506  1.00274218 21940
NAVSTAR 79 (USA 304)    
1 45854U 20041A   26155.52035594 -.00000071  00000+0  00000+0 0  9992
2 45854  56.6614  29.4353 0063414 204.6356 335.3918  2.00559225 43780
GALAXY 30 (G-30)        
1 46114U 20056C   26156.25325858  .00000049  00000+0  00000+0 0  9998
2 46114   0.0188 330.4888 0002402 100.7485 148.6097  1.00272482 21174
COSMOS 2547 [GLONASS-K] 
1 46805U 20075A   26156.21307741  .00000069  00000+0  00000+0 0  9995
2 46805  64.5987 192.8757 0009155 239.4130 120.5675  2.13100365 43650
NAVSTAR 80 (USA 309)    
1 46826U 20078A   26156.27860760  .00000039  00000+0  00000+0 0  9999
2 46826  53.9813 211.2618 0073021 206.8658 136.5871  2.00564995 41260
NAVSTAR 81 (USA 319)    
1 48859U 21054A   26156.28000029 -.00000068  00000+0  00000+0 0  9990
2 48859  55.1806 332.9387 0024995 228.6002 302.0011  2.00570015 36517
QZS-1R (MICHIBIKI-1R)   
1 49336U 21096A   26155.72839059 -.00000245  00000+0  00000+0 0  9995
2 49336  37.4366  79.7685 0754126 271.5405 298.7927  1.00260525 16885
GSAT0223 (GALILEO 27)   
1 49809U 21116A   26155.37812868 -.00000071  00000+0  00000+0 0  9990
2 49809  57.1645 342.0212 0001121 181.2918 357.3243  1.70476295 27961
GSAT0224 (GALILEO 28)   
1 49810U 21116B   26152.84978400 -.00000079  00000+0  00000+0 0  9994
2 49810  57.1667 342.0878 0000821 134.5472  44.9862  1.70476406 27945
COSMOS 2557 [GLONASS-K] 
1 52984U 22075A   26153.56187851 -.00000050  00000+0  00000+0 0  9996
2 52984  64.3077 315.0006 0010140 276.1929  83.6791  2.13102309 30406
COSMOS 2559 [GLONASS-K] 
1 54031U 22130A   26151.97369020 -.00000061  00000+0  00000+0 0  9998
2 54031  64.2818 315.1401 0012220 176.8765 183.1177  2.13101759 28340
COSMOS 2564 [GLONASS-M] 
1 54377U 22161A   26156.04037397  .00000069  00000+0  00000+0 0  9994
2 54377  64.7406 193.1150 0012026 224.1220 135.8537  2.13102077 27373
NAVSTAR 82 (USA 343)    
1 55268U 23009A   26155.74215671  .00000075  00000+0  00000+0 0  9992
2 55268  55.1215 149.0082 0006183 317.4389 222.9302  2.00572456 24999
BEIDOU-3 G4             
1 56564U 23066A   26156.30579934 -.00000270  00000+0  00000+0 0  9991
2 56564   0.5012 328.3909 0004410 168.2834   7.1698  1.00268362 11271
NVS-01 (IRNSS-1J)       
1 56759U 23076A   26156.23227824 -.00000323  00000+0  00000+0 0  9997
2 56759   2.1949 244.8910 0002889  43.1546 178.8433  1.00271639 10999
COSMOS 2569 [GLONASS-K2]
1 57517U 23114A   26156.05272274 -.00000009  00000+0  00000+0 0  9993
2 57517  65.2956  73.0297 0011137 296.7460  63.1621  2.13103780 22003
