OBJECT_NAME,OBJECT_ID,EPOCH,MEAN_MOTION,ECCENTRICITY,INCLINATION,RA_OF_ASC_NODE,ARG_OF_PERICENTER,MEAN_ANOMALY,EPHEMERIS_TYPE,CLASSIFICATION_TYPE,NORAD_CAT_ID,ELEMENT_SET_NO,REV_AT_EPOCH,BSTAR,MEAN_MOTION_DOT,MEAN_MOTION_DDOT
BEIDOU-2 G8 (C01),2019-027A,2026-06-05T07:21:35.943264,1.00275677,.0010717,1.6280,74.4904,284.3614,149.7739,0,U,44231,999,2596,0,-.234E-5,0
COSMOS 2534 (758),2019-030A,2026-06-03T15:05:56.889888,2.13102470,.0013144,64.3676,193.0731,275.2936,262.5197,0,U,44299,999,5463,0,.66E-6,0
BEIDOU-3 IGSO-2 (C39),2019-035A,2026-06-04T21:27:54.590976,1.00270541,.00397251,55.2445,158.9697,216.0101,320.2492,0,U,44337,999,2554,0,-.7E-6,0
GPS BIII-2  (PRN 18),2019-056A,2026-06-02T10:44:11.779584,2.00569922,.006123,55.6403,331.7284,197.3681,346.8768,0,U,44506,999,4977,0,-.81E-6,0
BEIDOU-3 M24 (C46),2019-061A,2026-06-04T08:32:01.071744,1.86229272,.00082925,54.3958,183.1608,359.5616,0.4973,0,U,44542,999,4555,0,.7E-6,0
BEIDOU-3 M23 (C45),2019-061B,2026-06-05T03:50:47.412672,1.86227560,.00055253,54.3945,183.1018,339.5866,111.6566,0,U,44543,999,4557,0,.75E-6,0
EUTELSAT 5 WEST B (EGNOS/PRN 121),2019-067A,2026-06-05T06:38:56.852160,1.00272107,.00033402,0.0652,339.9160,94.9654,273.5752,0,U,44624,999,2431,0,-.3E-6,0
BEIDOU-3 IGSO-3 (C40),2019-073A,2026-05-16T19:27:04.075776,1.00246251,.0042953,54.8566,281.2355,189.4588,170.3676,0,U,44709,999,2414,0,-.217E-5,0
BEIDOU-3 M22 (C44),2019-078A,2026-06-04T17:34:17.141376,1.86227616,.00067789,53.9480,300.2656,50.1879,309.8592,0,U,44793,999,4441,0,-.57E-6,0
BEIDOU-3 M21 (C43),2019-078B,2026-06-04T08:02:35.720160,1.86228007,.0004642,53.9214,300.2407,48.3800,311.6458,0,U,44794,999,4441,0,-.59E-6,0
COSMOS 2544 (759),2019-088A,2026-06-04T19:53:08.893824,2.13102158,.00136901,65.5595,74.1426,260.0926,99.7727,0,U,44850,999,5045,0,-.7E-7,0
BEIDOU-3 M19 (C41),2019-090A,2026-06-02T04:19:35.347872,1.86231755,.00183509,56.5459,63.2868,297.3172,255.2065,0,U,44864,999,4395,0,-.55E-6,0
BEIDOU-3 M20 (C42),2019-090B,2026-06-05T04:53:04.331040,1.86231708,.00161641,56.5503,63.2213,310.9083,198.1462,0,U,44865,999,4399,0,-.39E-6,0
BEIDOU-3 G2 (C60),2020-017A,2026-06-04T19:04:30.777888,1.00270930,.00028887,2.8392,47.1642,25.2494,186.9685,0,U,45344,999,2313,0,-.129E-5,0
COSMOS 2545 (760),2020-018A,2026-06-03T03:31:05.351808,2.13102718,.0007797,64.3637,312.9119,231.7288,128.1886,0,U,45358,999,4836,0,-.45E-6,0
BEIDOU-3 G3 (C61),2020-040A,2026-06-05T02:03:58.710816,1.00274218,.00030699,2.4176,67.4216,336.0146,351.6506,0,U,45807,999,2194,0,-.342E-5,0
GPS BIII-3  (PRN 23),2020-041A,2026-06-04T12:29:18.753216,2.00559225,.00634144,56.6614,29.4353,204.6356,335.3918,0,U,45854,999,4378,0,-.71E-6,0
GALAXY 30 (WAAS/PRN 135),2020-056C,2026-06-05T06:04:41.541312,1.00272482,.0002402,0.0188,330.4888,100.7485,148.6097,0,U,46114,999,2117,0,.49E-6,0
COSMOS 2547 (705K),2020-075A,2026-06-05T05:06:49.888224,2.13100365,.00091555,64.5987,192.8757,239.4130,120.5675,0,U,46805,999,4365,0,.69E-6,0
GPS BIII-4  (PRN 14),2020-078A,2026-06-05T06:41:11.696640,2.00564995,.00730212,53.9813,211.2618,206.8658,136.5871,0,U,46826,999,4126,0,.39E-6,0
GPS BIII-5  (PRN 11),2021-054A,2026-06-05T06:43:12.025056,2.00570015,.00249955,55.1806,332.9387,228.6002,302.0011,0,U,48859,999,3651,0,-.68E-6,0
QZS-1R (QZSS/PRN 196),2021-096A,2026-06-04T17:28:52.946976,1.00260525,.07541261,37.4366,79.7685,271.5405,298.7927,0,U,49336,999,1688,0,-.245E-5,0
GSAT0223 (GALILEO 27),2021-116A,2026-06-04T09:04:30.317952,1.70476295,.00011219,57.1645,342.0212,181.2918,357.3243,0,U,49809,999,2796,0,-.71E-6,0
GSAT0224 (GALILEO 28),2021-116B,2026-06-01T20:23:41.337600,1.70476406,.0000821,57.1667,342.0878,134.5472,44.9862,0,U,49810,999,2794,0,-.79E-6,0
COSMOS 2557 (706K),2022-075A,2026-06-02T13:29:06.303264,2.13102309,.00101406,64.3077,315.0006,276.1929,83.6791,0,U,52984,999,3040,0,-.5E-6,0
COSMOS 2559 (707K),2022-130A,2026-05-31T23:22:06.833280,2.13101759,.00122204,64.2818,315.1401,176.8765,183.1177,0,U,54031,999,2834,0,-.61E-6,0
COSMOS 2564 (761),2022-161A,2026-06-05T00:58:08.311008,2.13102077,.00120261,64.7406,193.1150,224.1220,135.8537,0,U,54377,999,2737,0,.69E-6,0
GPS BIII-6  (PRN 28),2023-009A,2026-06-04T17:48:42.339744,2.00572456,.00061835,55.1215,149.0082,317.4389,222.9302,0,U,55268,999,2499,0,.75E-6,0
BEIDOU-3 G4 (C62),2023-066A,2026-06-05T07:20:21.062976,1.00268362,.00044101,0.5012,328.3909,168.2834,7.1698,0,U,56564,999,1127,0,-.27E-5,0
NVS-01 (IRNSS-1J),2023-076A,2026-06-05T05:34:28.839936,1.00271639,.00028897,2.1949,244.8910,43.1546,178.8433,0,U,56759,999,1099,0,-.323E-5,0
COSMOS 2569 (703K),2023-114A,2026-06-05T01:15:55.244736,2.13103780,.0011137,65.2956,73.0297,296.7460,63.1621,0,U,57517,999,2200,0,-.9E-7,0
